STARLINK-36950          
1 67992U 26039G   26083.95282191  .00065933  00000+0  11201-2 0  9991
2 67992  42.9999 323.9676 0001703 262.8935  97.1731 15.50581684  4026
STARLINK-36975          
1 67993U 26039H   26083.68813892  .00063089  00000+0  10702-2 0  9995
2 67993  43.0005 325.4188 0003585 279.8640  80.1816 15.50636563  3980
STARLINK-36993          
1 67994U 26039J   26083.91667824 -.01945594  00000+0 -39946-1 0  9997
2 67994  42.9994 323.3810 0001170 269.3360 212.7133 15.48435799  5326
STARLINK-36968          
1 67995U 26039K   26083.96031590  .00105114  00000+0  17731-2 0  9990
2 67995  43.0015 324.0259 0002627 286.1101  73.9469 15.50584740  4025
STARLINK-36979          
1 67996U 26039L   26083.91667824 -.01935322  00000+0 -41501-1 0  9997
2 67996  42.9995 323.2722 0001238 260.0232 266.1891 15.47182883  5327
STARLINK-36994          
1 67997U 26039M   26083.91667824  .00041021  00000+0  70256-3 0  9990
2 67997  43.0000 323.6226 0001924 255.2787 128.6004 15.50531343  5324
STARLINK-36988          
1 67998U 26039N   26083.91667824  .00040894  00000+0  70035-3 0  9993
2 67998  42.9999 323.5646 0001425 280.7008 126.9185 15.50534439  5320
STARLINK-36926          
1 67999U 26039P   26083.91667824  .00056002  00000+0  95520-3 0  9998
2 67999  43.0001 323.5998 0001520 258.3158 134.8812 15.50531545  5320
STARLINK-36931          
1 68000U 26039Q   26083.91667824  .00041362  00000+0  70831-3 0  9993
2 68000  42.9999 323.3174 0001801 279.3761 227.8425 15.50531704  5327
STARLINK-36903          
1 68001U 26039R   26083.91667824 -.01933249  00000+0 -48154-1 0  9992
2 68001  42.9998 323.6497 0001606 256.5798 116.1396 15.42836731  5324
STARLINK-36898          
1 68002U 26039S   26083.91667824 -.01863555  00000+0 -48668-1 0  9995
2 68002  43.0002 323.4517 0001578 268.5819 184.3285 15.41313005  5326
STARLINK-36862          
1 68003U 26039T   26083.91667824 -.01880071  00000+0 -51504-1 0  9991
2 68003  43.0002 323.6015 0001793 257.5047 134.2783 15.39912024  5322
